STARLINK-1437
1 25714C 20035BK  21325.14689557  .00008827  00000-0  59146-3 0  3255
2 25714  53.0533 242.5821 0002030  68.5252  74.7725 15.06387869    15
